[{"OBJECT_NAME":"STARLINK-32672","OBJECT_ID":"2024-229D","EPOCH":"2026-03-09T23:01:13.117440","MEAN_MOTION":15.27591604,"ECCENTRICITY":0.00028318,"INCLINATION":43.0028,"RA_OF_ASC_NODE":269.1028,"ARG_OF_PERICENTER":248.7074,"MEAN_ANOMALY":111.3475,"EPHEMERIS_TYPE":0,"CLASSIFICATION_TYPE":"U","NORAD_CAT_ID":62195,"ELEMENT_SET_NO":999,"REV_AT_EPOCH":7060,"BSTAR":0.00057822556,"MEAN_MOTION_DOT":0.0001569,"MEAN_MOTION_DDOT":0},{"OBJECT_NAME":"TROLL","OBJECT_ID":"2025-009BB","EPOCH":"2026-03-09T05:24:19.835712","MEAN_MOTION":15.28164315,"ECCENTRICITY":0.00018165,"INCLINATION":97.3932,"RA_OF_ASC_NODE":150.7169,"ARG_OF_PERICENTER":59.185,"MEAN_ANOMALY":300.9568,"EPHEMERIS_TYPE":0,"CLASSIFICATION_TYPE":"U","NORAD_CAT_ID":62658,"ELEMENT_SET_NO":999,"REV_AT_EPOCH":11817,"BSTAR":0.00048220305,"MEAN_MOTION_DOT":0.00013174,"MEAN_MOTION_DDOT":0}]
