STARLINK-32672          
1 62195U 24229D   26068.95917960  .00015690  00000+0  57823-3 0  9998
2 62195  43.0028 269.1028 0002832 248.7074 111.3475 15.27591604 70602
TROLL                   
1 62658U 25009BB  26068.22522958  .00013174  00000+0  48220-3 0  9994
2 62658  97.3932 150.7169 0001816  59.1850 300.9568 15.28164315118170
